SL-8 R/B                
1 11574U 79089B   26101.20548366  .00000221  00000+0  74775-4 0  9993
2 11574  74.0710  30.8510 0016246 198.5123 161.5445 14.42373484440794
SL-14 R/B               
1 11672U 80005B   26101.74729705  .00000481  00000+0  46036-4 0  9996
2 11672  82.5111 275.8676 0016961  56.4577 303.8259 14.90970735481418
SL-8 R/B                
1 12139U 81003B   26101.50156905  .00017832  00000+0  44312-3 0  9996
2 12139  82.9373 259.6466 0258065  64.6819 298.0902 15.12491403319630
SL-3 R/B                
1 12465U 81046B   26101.87015998  .00009563  00000+0  21610-3 0  9999
2 12465  81.2294 249.8686 0018026 263.4664  96.4527 15.42856808443547
SL-3 R/B                
1 12904U 81103B   26101.78470748  .00003247  00000+0  14174-3 0  9999
2 12904  81.1604 174.6066 0013532 170.6404 189.5083 15.21771728978261
SL-3 R/B                
1 13068U 82013B   26101.84568382  .00003026  00000+0  12924-3 0  9997
2 13068  81.1717 121.8979 0023443  69.7844 290.5905 15.22314235409399
SL-3 R/B                
1 13154U 82039B   26101.78570409  .00001503  00000+0  89598-4 0  9997
2 13154  81.1535 177.7938 0027902 213.0298 146.9186 15.10270681386638
SL-3 R/B                
1 13403U 82079B   26101.80158769  .00003624  00000+0  14196-3 0  9999
2 13403  81.1466 153.9735 0025151  56.3851 303.9777 15.25225847382745
SL-14 R/B               
1 13553U 82092B   26101.50740931  .00000354  00000+0  36926-4 0  9998
2 13553  82.5646 110.6941 0020068 187.8474 333.4869 14.86696982333809
SL-3 R/B                
1 13819U 83010B   26101.87960534  .00010273  00000+0  19881-3 0  9998
2 13819  81.1029 321.5215 0015077 293.4393  66.5267 15.47464505363079
SL-3 R/B                
1 14208U 83075B   26101.85086691  .00008815  00000+0  22672-3 0  9994
2 14208  97.6138 107.7049 0023215 109.8106 250.5644 15.39236002335252
COSMOS 1536             
1 14699U 84013A   26101.87638545  .00005612  00000+0  22762-3 0  9996
2 14699  82.5426  74.8405 0015016 158.1418 202.0463 15.24308812277677
SL-14 R/B               
1 14820U 84027B   26101.55343666  .00000400  00000+0  42928-4 0  9996
2 14820  82.5439 214.1923 0016987 220.9339 139.0603 14.86013900252518
SL-8 R/B                
1 15483U 85006B   26101.55919875  .00000166  00000+0  63745-4 0  9990
2 15483  74.0466 200.6653 0017302 108.0727 263.2541 14.37806638158755
SL-12 R/B(2)            
1 15772U 85042D   26101.75151170  .00000066  00000+0  50837-4 0  9996
2 15772  71.1106  17.8780 0032987  73.2451 322.0240 14.21992320119098
SL-14 R/B               
1 15945U 85069B   26101.79744039  .00000332  00000+0  34682-4 0  9999
2 15945  82.5297 353.8105 0020363  83.2631 277.0902 14.86469395177750
SL-16 R/B               
1 16182U 85097B   26101.88418468  .00000236  00000+0  14245-3 0  9993
2 16182  71.0019  70.6654 0008801 219.0643 161.8318 14.16603764 91936
