[{"OBJECT_NAME":"SL-8 R/B","OBJECT_ID":"1979-089B","EPOCH":"2026-04-11T04:55:53.788224","MEAN_MOTION":14.42373484,"ECCENTRICITY":0.00162466,"INCLINATION":74.071,"RA_OF_ASC_NODE":30.851,"ARG_OF_PERICENTER":198.5123,"MEAN_ANOMALY":161.5445,"EPHEMERIS_TYPE":0,"CLASSIFICATION_TYPE":"U","NORAD_CAT_ID":11574,"ELEMENT_SET_NO":999,"REV_AT_EPOCH":44079,"BSTAR":7.4775148e-5,"MEAN_MOTION_DOT":2.21e-6,"MEAN_MOTION_DDOT":0},{"OBJECT_NAME":"SL-14 R/B","OBJECT_ID":"1980-005B","EPOCH":"2026-04-11T17:56:06.465120","MEAN_MOTION":14.90970735,"ECCENTRICITY":0.0016961,"INCLINATION":82.5111,"RA_OF_ASC_NODE":275.8676,"ARG_OF_PERICENTER":56.4577,"MEAN_ANOMALY":303.8259,"EPHEMERIS_TYPE":0,"CLASSIFICATION_TYPE":"U","NORAD_CAT_ID":11672,"ELEMENT_SET_NO":999,"REV_AT_EPOCH":48141,"BSTAR":4.6036e-5,"MEAN_MOTION_DOT":4.81e-6,"MEAN_MOTION_DDOT":0},{"OBJECT_NAME":"SL-8 R/B","OBJECT_ID":"1981-003B","EPOCH":"2026-04-11T12:02:15.565920","MEAN_MOTION":15.12491403,"ECCENTRICITY":0.0258065,"INCLINATION":82.9373,"RA_OF_ASC_NODE":259.6466,"ARG_OF_PERICENTER":64.6819,"MEAN_ANOMALY":298.0902,"EPHEMERIS_TYPE":0,"CLASSIFICATION_TYPE":"U","NORAD_CAT_ID":12139,"ELEMENT_SET_NO":999,"REV_AT_EPOCH":31963,"BSTAR":0.00044312,"MEAN_MOTION_DOT":0.00017832,"MEAN_MOTION_DDOT":0},{"OBJECT_NAME":"SL-3 R/B","OBJECT_ID":"1981-046B","EPOCH":"2026-04-11T20:53:01.822272","MEAN_MOTION":15.42856808,"ECCENTRICITY":0.0018026,"INCLINATION":81.2294,"RA_OF_ASC_NODE":249.8686,"ARG_OF_PERICENTER":263.4664,"MEAN_ANOMALY":96.4527,"EPHEMERIS_TYPE":0,"CLASSIFICATION_TYPE":"U","NORAD_CAT_ID":12465,"ELEMENT_SET_NO":999,"REV_AT_EPOCH":44354,"BSTAR":0.0002161,"MEAN_MOTION_DOT":9.563e-5,"MEAN_MOTION_DDOT":0},{"OBJECT_NAME":"SL-3 R/B","OBJECT_ID":"1981-103B","EPOCH":"2026-04-11T18:49:58.726272","MEAN_MOTION":15.21771728,"ECCENTRICITY":0.0013532,"INCLINATION":81.1604,"RA_OF_ASC_NODE":174.6066,"ARG_OF_PERICENTER":170.6404,"MEAN_ANOMALY":189.5083,"EPHEMERIS_TYPE":0,"CLASSIFICATION_TYPE":"U","NORAD_CAT_ID":12904,"ELEMENT_SET_NO":999,"REV_AT_EPOCH":97826,"BSTAR":0.00014174,"MEAN_MOTION_DOT":3.247e-5,"MEAN_MOTION_DDOT":0},{"OBJECT_NAME":"SL-3 R/B","OBJECT_ID":"1982-013B","EPOCH":"2026-04-11T20:17:47.082048","MEAN_MOTION":15.22314235,"ECCENTRICITY":0.0023443,"INCLINATION":81.1717,"RA_OF_ASC_NODE":121.8979,"ARG_OF_PERICENTER":69.7844,"MEAN_ANOMALY":290.5905,"EPHEMERIS_TYPE":0,"CLASSIFICATION_TYPE":"U","NORAD_CAT_ID":13068,"ELEMENT_SET_NO":999,"REV_AT_EPOCH":40939,"BSTAR":0.00012924,"MEAN_MOTION_DOT":3.026e-5,"MEAN_MOTION_DDOT":0},{"OBJECT_NAME":"SL-3 R/B","OBJECT_ID":"1982-039B","EPOCH":"2026-04-11T18:51:24.833376","MEAN_MOTION":15.10270681,"ECCENTRICITY":0.0027902,"INCLINATION":81.1535,"RA_OF_ASC_NODE":177.7938,"ARG_OF_PERICENTER":213.0298,"MEAN_ANOMALY":146.9186,"EPHEMERIS_TYPE":0,"CLASSIFICATION_TYPE":"U","NORAD_CAT_ID":13154,"ELEMENT_SET_NO":999,"REV_AT_EPOCH":38663,"BSTAR":8.9598e-5,"MEAN_MOTION_DOT":1.503e-5,"MEAN_MOTION_DDOT":0},{"OBJECT_NAME":"SL-3 R/B","OBJECT_ID":"1982-079B","EPOCH":"2026-04-11T19:14:17.176416","MEAN_MOTION":15.25225847,"ECCENTRICITY":0.0025151,"INCLINATION":81.1466,"RA_OF_ASC_NODE":153.9735,"ARG_OF_PERICENTER":56.3851,"MEAN_ANOMALY":303.9777,"EPHEMERIS_TYPE":0,"CLASSIFICATION_TYPE":"U","NORAD_CAT_ID":13403,"ELEMENT_SET_NO":999,"REV_AT_EPOCH":38274,"BSTAR":0.00014196,"MEAN_MOTION_DOT":3.624e-5,"MEAN_MOTION_DDOT":0},{"OBJECT_NAME":"SL-14 R/B","OBJECT_ID":"1982-092B","EPOCH":"2026-04-11T12:10:40.164384","MEAN_MOTION":14.86696982,"ECCENTRICITY":0.0020068,"INCLINATION":82.5646,"RA_OF_ASC_NODE":110.6941,"ARG_OF_PERICENTER":187.8474,"MEAN_ANOMALY":333.4869,"EPHEMERIS_TYPE":0,"CLASSIFICATION_TYPE":"U","NORAD_CAT_ID":13553,"ELEMENT_SET_NO":999,"REV_AT_EPOCH":33380,"BSTAR":3.6926e-5,"MEAN_MOTION_DOT":3.54e-6,"MEAN_MOTION_DDOT":0},{"OBJECT_NAME":"SL-3 R/B","OBJECT_ID":"1983-010B","EPOCH":"2026-04-11T21:06:37.901376","MEAN_MOTION":15.47464505,"ECCENTRICITY":0.0015077,"INCLINATION":81.1029,"RA_OF_ASC_NODE":321.5215,"ARG_OF_PERICENTER":293.4393,"MEAN_ANOMALY":66.5267,"EPHEMERIS_TYPE":0,"CLASSIFICATION_TYPE":"U","NORAD_CAT_ID":13819,"ELEMENT_SET_NO":999,"REV_AT_EPOCH":36307,"BSTAR":0.00019881,"MEAN_MOTION_DOT":0.00010273,"MEAN_MOTION_DDOT":0},{"OBJECT_NAME":"SL-3 R/B","OBJECT_ID":"1983-075B","EPOCH":"2026-04-11T20:25:14.901024","MEAN_MOTION":15.39236002,"ECCENTRICITY":0.0023215,"INCLINATION":97.6138,"RA_OF_ASC_NODE":107.7049,"ARG_OF_PERICENTER":109.8106,"MEAN_ANOMALY":250.5644,"EPHEMERIS_TYPE":0,"CLASSIFICATION_TYPE":"U","NORAD_CAT_ID":14208,"ELEMENT_SET_NO":999,"REV_AT_EPOCH":33525,"BSTAR":0.00022672,"MEAN_MOTION_DOT":8.815e-5,"MEAN_MOTION_DDOT":0},{"OBJECT_NAME":"COSMOS 1536","OBJECT_ID":"1984-013A","EPOCH":"2026-04-11T21:01:59.702880","MEAN_MOTION":15.24308812,"ECCENTRICITY":0.0015016,"INCLINATION":82.5426,"RA_OF_ASC_NODE":74.8405,"ARG_OF_PERICENTER":158.1418,"MEAN_ANOMALY":202.0463,"EPHEMERIS_TYPE":0,"CLASSIFICATION_TYPE":"U","NORAD_CAT_ID":14699,"ELEMENT_SET_NO":999,"REV_AT_EPOCH":27767,"BSTAR":0.00022762,"MEAN_MOTION_DOT":5.612e-5,"MEAN_MOTION_DDOT":0},{"OBJECT_NAME":"SL-14 R/B","OBJECT_ID":"1984-027B","EPOCH":"2026-04-11T13:16:56.927424","MEAN_MOTION":14.860139,"ECCENTRICITY":0.0016987,"INCLINATION":82.5439,"RA_OF_ASC_NODE":214.1923,"ARG_OF_PERICENTER":220.9339,"MEAN_ANOMALY":139.0603,"EPHEMERIS_TYPE":0,"CLASSIFICATION_TYPE":"U","NORAD_CAT_ID":14820,"ELEMENT_SET_NO":999,"REV_AT_EPOCH":25251,"BSTAR":4.2928e-5,"MEAN_MOTION_DOT":4.0e-6,"MEAN_MOTION_DDOT":0},{"OBJECT_NAME":"SL-8 R/B","OBJECT_ID":"1985-006B","EPOCH":"2026-04-11T13:25:14.772000","MEAN_MOTION":14.37806638,"ECCENTRICITY":0.0017302,"INCLINATION":74.0466,"RA_OF_ASC_NODE":200.6653,"ARG_OF_PERICENTER":108.0727,"MEAN_ANOMALY":263.2541,"EPHEMERIS_TYPE":0,"CLASSIFICATION_TYPE":"U","NORAD_CAT_ID":15483,"ELEMENT_SET_NO":999,"REV_AT_EPOCH":15875,"BSTAR":6.3745e-5,"MEAN_MOTION_DOT":1.66e-6,"MEAN_MOTION_DDOT":0},{"OBJECT_NAME":"SL-12 R/B(2)","OBJECT_ID":"1985-042D","EPOCH":"2026-04-11T18:02:10.610880","MEAN_MOTION":14.2199232,"ECCENTRICITY":0.0032987,"INCLINATION":71.1106,"RA_OF_ASC_NODE":17.878,"ARG_OF_PERICENTER":73.2451,"MEAN_ANOMALY":322.024,"EPHEMERIS_TYPE":0,"CLASSIFICATION_TYPE":"U","NORAD_CAT_ID":15772,"ELEMENT_SET_NO":999,"REV_AT_EPOCH":11909,"BSTAR":5.0837e-5,"MEAN_MOTION_DOT":6.6e-7,"MEAN_MOTION_DDOT":0},{"OBJECT_NAME":"SL-14 R/B","OBJECT_ID":"1985-069B","EPOCH":"2026-04-11T19:08:18.849696","MEAN_MOTION":14.86469395,"ECCENTRICITY":0.0020363,"INCLINATION":82.5297,"RA_OF_ASC_NODE":353.8105,"ARG_OF_PERICENTER":83.2631,"MEAN_ANOMALY":277.0902,"EPHEMERIS_TYPE":0,"CLASSIFICATION_TYPE":"U","NORAD_CAT_ID":15945,"ELEMENT_SET_NO":999,"REV_AT_EPOCH":17775,"BSTAR":3.4682e-5,"MEAN_MOTION_DOT":3.32e-6,"MEAN_MOTION_DDOT":0},{"OBJECT_NAME":"SL-16 R/B","OBJECT_ID":"1985-097B","EPOCH":"2026-04-11T21:13:13.556352","MEAN_MOTION":14.16603764,"ECCENTRICITY":0.0008801,"INCLINATION":71.0019,"RA_OF_ASC_NODE":70.6654,"ARG_OF_PERICENTER":219.0643,"MEAN_ANOMALY":161.8318,"EPHEMERIS_TYPE":0,"CLASSIFICATION_TYPE":"U","NORAD_CAT_ID":16182,"ELEMENT_SET_NO":999,"REV_AT_EPOCH":9193,"BSTAR":0.00014245,"MEAN_MOTION_DOT":2.36e-6,"MEAN_MOTION_DDOT":0}]
